{"type": "FeatureCollection", "features": [ {"type": "Feature", "properties": {"norad_id": 66886, "name": "STARLINK-35900", "group": "last-30-days", "lat": 25.62660513509927, "lon": 73.4962838157847, "alt_km": 307.30024852996667, "timestamp": "2025-12-16T23:36:34.925107+00:00", "meta": {"OBJECT_NAME": "STARLINK-35900", "OBJECT_ID": "2025-283J", "EPOCH": "2025-12-16T03:49:40.189152", "MEAN_MOTION": 15.86849525, "ECCENTRICITY": 0.00025438, "INCLINATION": 53.155, "RA_OF_ASC_NODE": 56.5859, "ARG_OF_PERICENTER": 218.2258, "MEAN_ANOMALY": 141.8587, "EPHEMERIS_TYPE": 0, "CLASSIFICATION_TYPE": "U", "NORAD_CAT_ID": 66886, "ELEMENT_SET_NO": 999, "REV_AT_EPOCH": 299, "BSTAR": 0.002026956, "MEAN_MOTION_DOT": 0.00566265, "MEAN_MOTION_DDOT": 0}, "tle": {"line1": "1 66886U 25283J   25350.15949293  .00566265  00000+0  20270-2 0  9993", "line2": "2 66886  53.1550  56.5859 0002543 218.2258 141.8587 15.86849525  2992"}}, "geometry": {"type": "Point", "coordinates": [73.4962838157847, 25.62660513509927]}}, {"type": "Feature", "properties": {"norad_id": 66887, "name": "STARLINK-35925", "group": "last-30-days", "lat": 31.091823771553642, "lon": 79.28418403271738, "alt_km": 307.36463145187645, "timestamp": "2025-12-16T23:36:34.925119+00:00", "meta": {"OBJECT_NAME": "STARLINK-35925", "OBJECT_ID": "2025-283K", "EPOCH": "2025-12-16T05:19:11.379936", "MEAN_MOTION": 15.87919839, "ECCENTRICITY": 0.00091447, "INCLINATION": 53.1549, "RA_OF_ASC_NODE": 56.262, "ARG_OF_PERICENTER": 237.2957, "MEAN_ANOMALY": 122.7187, "EPHEMERIS_TYPE": 0, "CLASSIFICATION_TYPE": "U", "NORAD_CAT_ID": 66887, "ELEMENT_SET_NO": 999, "REV_AT_EPOCH": 300, "BSTAR": 0.0020944577, "MEAN_MOTION_DOT": 0.00621681, "MEAN_MOTION_DDOT": 0}, "tle": {"line1": "1 66887U 25283K   25350.22165949  .00621681  00000+0  20945-2 0  9993", "line2": "2 66887  53.1549  56.2620 0009144 237.2957 122.7187 15.87919839  3009"}}, "geometry": {"type": "Point", "coordinates": [79.28418403271738, 31.091823771553642]}}, {"type": "Feature", "properties": {"norad_id": 66888, "name": "STARLINK-35919", "group": "last-30-days", "lat": 32.91872615644419, "lon": 81.43605014492735, "alt_km": 300.1331163905661, "timestamp": "2025-12-16T23:36:34.925130+00:00", "meta": {"OBJECT_NAME": "STARLINK-35919", "OBJECT_ID": "2025-283L", "EPOCH": "2025-12-16T06:49:16.676256", "MEAN_MOTION": 15.88063942, "ECCENTRICITY": 0.00015478, "INCLINATION": 53.1548, "RA_OF_ASC_NODE": 55.9401, "ARG_OF_PERICENTER": 85.8415, "MEAN_ANOMALY": 274.2788, "EPHEMERIS_TYPE": 0, "CLASSIFICATION_TYPE": "U", "NORAD_CAT_ID": 66888, "ELEMENT_SET_NO": 999, "REV_AT_EPOCH": 301, "BSTAR": 0.002479459, "MEAN_MOTION_DOT": 0.00751295, "MEAN_MOTION_DDOT": 0}, "tle": {"line1": "1 66888U 25283L   25350.28422079  .00751295  00000+0  24795-2 0  9992", "line2": "2 66888  53.1548  55.9401 0001547  85.8415 274.2788 15.88063942  3014"}}, "geometry": {"type": "Point", "coordinates": [81.43605014492735, 32.91872615644419]}}, {"type": "Feature", "properties": {"norad_id": 66889, "name": "STARLINK-35852", "group": "last-30-days", "lat": 29.59955689222365, "lon": 77.61560221790918, "alt_km": 308.7336326997456, "timestamp": "2025-12-16T23:36:34.925140+00:00", "meta": {"OBJECT_NAME": "STARLINK-35852", "OBJECT_ID": "2025-283M", "EPOCH": "2025-12-16T06:49:12.357984", "MEAN_MOTION": 15.86365499, "ECCENTRICITY": 0.00019951, "INCLINATION": 53.1543, "RA_OF_ASC_NODE": 55.9395, "ARG_OF_PERICENTER": 185.1393, "MEAN_ANOMALY": 174.9612, "EPHEMERIS_TYPE": 0, "CLASSIFICATION_TYPE": "U", "NORAD_CAT_ID": 66889, "ELEMENT_SET_NO": 999, "REV_AT_EPOCH": 301, "BSTAR": 0.0013138282, "MEAN_MOTION_DOT": 0.003494, "MEAN_MOTION_DDOT": 0}, "tle": {"line1": "1 66889U 25283M   25350.28417081  .00349400  00000+0  13138-2 0  9990", "line2": "2 66889  53.1543  55.9395 0001995 185.1393 174.9612 15.86365499  3010"}}, "geometry": {"type": "Point", "coordinates": [77.61560221790918, 29.59955689222365]}}, {"type": "Feature", "properties": {"norad_id": 66890, "name": "STARLINK-35885", "group": "last-30-days", "lat": 36.563666638969764, "lon": 86.17238769983834, "alt_km": 299.701099850643, "timestamp": "2025-12-16T23:36:34.925150+00:00", "meta": {"OBJECT_NAME": "STARLINK-35885", "OBJECT_ID": "2025-283N", "EPOCH": "2025-12-15T21:44:02.722848", "MEAN_MOTION": 15.87705808, "ECCENTRICITY": 0.00021789, "INCLINATION": 53.1551, "RA_OF_ASC_NODE": 57.8457, "ARG_OF_PERICENTER": 43.2715, "MEAN_ANOMALY": 316.8482, "EPHEMERIS_TYPE": 0, "CLASSIFICATION_TYPE": "U", "NORAD_CAT_ID": 66890, "ELEMENT_SET_NO": 999, "REV_AT_EPOCH": 295, "BSTAR": 0.0017263509, "MEAN_MOTION_DOT": 0.00499019, "MEAN_MOTION_DDOT": 0}, "tle": {"line1": "1 66890U 25283N   25349.90558707  .00499019  00000+0  17264-2 0  9996", "line2": "2 66890  53.1551  57.8457 0002178  43.2715 316.8482 15.87705808  2954"}}, "geometry": {"type": "Point", "coordinates": [86.17238769983834, 36.563666638969764]}}, {"type": "Feature", "properties": {"norad_id": 66891, "name": "STARLINK-35855", "group": "last-30-days", "lat": 32.37516282826763, "lon": 80.78166642997138, "alt_km": 308.73582270593033, "timestamp": "2025-12-16T23:36:34.925163+00:00", "meta": {"OBJECT_NAME": "STARLINK-35855", "OBJECT_ID": "2025-283P", "EPOCH": "2025-12-16T06:47:53.622528", "MEAN_MOTION": 15.85857, "ECCENTRICITY": 1.894e-05, "INCLINATION": 53.155, "RA_OF_ASC_NODE": 55.9335, "ARG_OF_PERICENTER": 274.587, "MEAN_ANOMALY": 85.5134, "EPHEMERIS_TYPE": 0, "CLASSIFICATION_TYPE": "U", "NORAD_CAT_ID": 66891, "ELEMENT_SET_NO": 999, "REV_AT_EPOCH": 301, "BSTAR": 0.0012242127, "MEAN_MOTION_DOT": 0.00316391, "MEAN_MOTION_DDOT": 0}, "tle": {"line1": "1 66891U 25283P   25350.28325952  .00316391  00000+0  12242-2 0  9996", "line2": "2 66891  53.1550  55.9335 0000189 274.5870  85.5134 15.85857000  3011"}}, "geometry": {"type": "Point", "coordinates": [80.78166642997138, 32.37516282826763]}}, {"type": "Feature", "properties": {"norad_id": 66892, "name": "STARLINK-35883", "group": "last-30-days", "lat": 35.105651206688, "lon": 84.19790007525356, "alt_km": 307.69024966428424, "timestamp": "2025-12-16T23:36:34.925173+00:00", "meta": {"OBJECT_NAME": "STARLINK-35883", "OBJECT_ID": "2025-283Q", "EPOCH": "2025-12-16T05:16:29.093952", "MEAN_MOTION": 15.86267436, "ECCENTRICITY": 0.00022225, "INCLINATION": 53.1547, "RA_OF_ASC_NODE": 56.2482, "ARG_OF_PERICENTER": 170.4968, "MEAN_ANOMALY": 189.6099, "EPHEMERIS_TYPE": 0, "CLASSIFICATION_TYPE": "U", "NORAD_CAT_ID": 66892, "ELEMENT_SET_NO": 999, "REV_AT_EPOCH": 300, "BSTAR": 0.0013912988, "MEAN_MOTION_DOT": 0.0036912, "MEAN_MOTION_DDOT": 0}, "tle": {"line1": "1 66892U 25283Q   25350.21978118  .00369120  00000+0  13913-2 0  9992", "line2": "2 66892  53.1547  56.2482 0002222 170.4968 189.6099 15.86267436  3001"}}, "geometry": {"type": "Point", "coordinates": [84.19790007525356, 35.105651206688]}}, {"type": "Feature", "properties": {"norad_id": 66893, "name": "STARLINK-36033", "group": "last-30-days", "lat": 36.57483618369763, "lon": 86.18829879487696, "alt_km": 308.20248967627685, "timestamp": "2025-12-16T23:36:34.925183+00:00", "meta": {"OBJECT_NAME": "STARLINK-36033", "OBJECT_ID": "2025-283R", "EPOCH": "2025-12-16T05:15:50.902560", "MEAN_MOTION": 15.86247374, "ECCENTRICITY": 0.00021551, "INCLINATION": 53.1548, "RA_OF_ASC_NODE": 56.2452, "ARG_OF_PERICENTER": 180.6461, "MEAN_ANOMALY": 179.4562, "EPHEMERIS_TYPE": 0, "CLASSIFICATION_TYPE": "U", "NORAD_CAT_ID": 66893, "ELEMENT_SET_NO": 999, "REV_AT_EPOCH": 300, "BSTAR": 0.00086491941, "MEAN_MOTION_DOT": 0.00225211, "MEAN_MOTION_DDOT": 0}, "tle": {"line1": "1 66893U 25283R   25350.21933915  .00225211  00000+0  86492-3 0  9994", "line2": "2 66893  53.1548  56.2452 0002155 180.6461 179.4562 15.86247374  3007"}}, "geometry": {"type": "Point", "coordinates": [86.18829879487696, 36.57483618369763]}}, {"type": "Feature", "properties": {"norad_id": 66894, "name": "STARLINK-35718", "group": "last-30-days", "lat": 40.6760019427397, "lon": 92.4911276472401, "alt_km": 305.71571298230447, "timestamp": "2025-12-16T23:36:34.925203+00:00", "meta": {"OBJECT_NAME": "STARLINK-35718", "OBJECT_ID": "2025-283S", "EPOCH": "2025-12-15T14:08:02.213664", "MEAN_MOTION": 15.87892721, "ECCENTRICITY": 0.00014965, "INCLINATION": 53.1553, "RA_OF_ASC_NODE": 59.4259, "ARG_OF_PERICENTER": 43.2215, "MEAN_ANOMALY": 316.8928, "EPHEMERIS_TYPE": 0, "CLASSIFICATION_TYPE": "U", "NORAD_CAT_ID": 66894, "ELEMENT_SET_NO": 999, "REV_AT_EPOCH": 290, "BSTAR": -0.00189, "MEAN_MOTION_DOT": -0.00494762, "MEAN_MOTION_DDOT": 0}, "tle": {"line1": "1 66894U 25283S   25349.58891451 -.00494762  00000+0 -18900-2 0  9990", "line2": "2 66894  53.1553  59.4259 0001496  43.2215 316.8928 15.87892721  2906"}}, "geometry": {"type": "Point", "coordinates": [92.4911276472401, 40.6760019427397]}}, {"type": "Feature", "properties": {"norad_id": 66895, "name": "STARLINK-35971", "group": "last-30-days", "lat": 41.118630672865315, "lon": 93.25500895279129, "alt_km": 308.8204093043114, "timestamp": "2025-12-16T23:36:34.925216+00:00", "meta": {"OBJECT_NAME": "STARLINK-35971", "OBJECT_ID": "2025-283T", "EPOCH": "2025-12-16T05:13:43.906656", "MEAN_MOTION": 15.8596507, "ECCENTRICITY": 0.00011568, "INCLINATION": 53.1544, "RA_OF_ASC_NODE": 56.2345, "ARG_OF_PERICENTER": 276.0883, "MEAN_ANOMALY": 84.001, "EPHEMERIS_TYPE": 0, "CLASSIFICATION_TYPE": "U", "NORAD_CAT_ID": 66895, "ELEMENT_SET_NO": 999, "REV_AT_EPOCH": 300, "BSTAR": -6.2150907e-05, "MEAN_MOTION_DOT": -0.00016343, "MEAN_MOTION_DDOT": 0}, "tle": {"line1": "1 66895U 25283T   25350.21786929 -.00016343  00000+0 -62151-4 0  9990", "line2": "2 66895  53.1544  56.2345 0001156 276.0883  84.0010 15.85965070  3002"}}, "geometry": {"type": "Point", "coordinates": [93.25500895279129, 41.118630672865315]}}]}